IRIDIUM 39              
1 25042U 97069D   26012.73397305  .00000646  00000+0  16289-3 0  9996
2 25042  86.3934 121.3412 0016444 332.1856  27.8467 14.49561964479316
IRIDIUM 38              
1 25043U 97069E   26012.86647882  .00000415  00000+0  12968-3 0  9993
2 25043  86.3996 145.0214 0003772 112.3240 247.8359 14.38351769476097
IRIDIUM 42              
1 25077U 97077A   26012.92227087  .00000352  00000+0  11304-3 0  9990
2 25077  86.4002 151.4253 0002530 109.1996 250.9475 14.36565404471304
IRIDIUM 44              
1 25078U 97077B   26012.86586574  .00000326  00000+0  96288-4 0  9999
2 25078  86.3991 132.8227 0003757  77.8775 282.2845 14.40463413473889
IRIDIUM 45              
1 25104U 97082A   26012.75950391  .00022456  00000+0  60600-3 0  9991
2 25104  86.3550 305.3679 0090476 260.7058  98.3952 15.33499622484026
IRIDIUM 24              
1 25105U 97082B   26012.91317010  .00000396  00000+0  11356-3 0  9998
2 25105  86.3923 351.3230 0013483 102.3052 257.9659 14.42365069473440
IRIDIUM 51              
1 25262U 98018A   26012.77300884  .00135044  00000+0  10445-2 0  9993
2 25262  86.3704 310.2220 0047432 143.7941 216.6556 15.69940874479505
IRIDIUM 57              
1 25273U 98019B   26012.84890509  .00000270  00000+0  85973-4 0  9994
2 25273  86.3928  57.3366 0002320  93.4742 266.6721 14.36077321454875
